NORAD_CAT_ID,OBJECT_NAME,OBJECT_TYPE,EPOCH,MEAN_MOTION,ECCENTRICITY,INCLINATION,RA_OF_ASC_NODE,ARG_OF_PERICENTER,MEAN_ANOMALY,BSTAR,MEAN_MOTION_DOT,MEAN_MOTION_DDOT,TLE_LINE0,TLE_LINE1,TLE_LINE2,SEMIMAJOR_AXIS,PERIOD,APOGEE,PERIGEE,DECAYED
50817.0,STARLINK-3341,PAYLOAD,2023-10-09 20:37:57,15.08839226,0.0001045,53.2157,167.811,92.5472,267.564,0.00045199,6.913e-05,0.0,0 STARLINK-3341,1 50817U 22001Q   23282.85969606  .00006913  00000-0  45199-3 0  9992,2 50817  53.2157 167.8110 0001045  92.5472 267.5640 15.08839226 98538,6917.883,95.438,540.471,539.025,0.0
50817.0,STARLINK-3341,PAYLOAD,2023-10-10 09:21:03,15.0884771,0.0001208,53.2154,165.4307,90.4465,269.6666,0.0012956,0.00020396,0.0,0 STARLINK-3341,1 50817U 22001Q   23283.38961928  .00020396  00000-0  12956-2 0  9995,2 50817  53.2154 165.4307 0001208  90.4465 269.6666 15.08847710 97365,6917.857,95.437,540.557,538.886,0.0
50817.0,STARLINK-3341,PAYLOAD,2023-10-10 22:04:07,15.08856744,0.0001105,53.2152,163.0516,91.5661,268.5458,0.00086856,0.00013568,0.0,0 STARLINK-3341,1 50817U 22001Q   23283.91953492  .00013568  00000-0  86856-3 0  9995,2 50817  53.2152 163.0516 0001105  91.5661 268.5458 15.08856744 97448,6917.829,95.436,540.459,538.93,0.0
50817.0,STARLINK-3341,PAYLOAD,2023-10-10 23:39:30,15.08860639,0.0001118,53.2153,162.7547,90.9399,269.1721,0.00094195,0.00014743,0.0,0 STARLINK-3341,1 50817U 22001Q   23283.98577367  .00014743  00000-0  94195-3 0  9996,2 50817  53.2153 162.7547 0001118  90.9399 269.1721 15.08860639 98702,6917.817,95.436,540.456,538.909,0.0
50817.0,STARLINK-3341,PAYLOAD,2023-10-11 09:11:50,15.08839677,0.0001085,53.215,160.9706,85.7671,274.3445,0.00014703,2.053e-05,0.0,0 STARLINK-3341,1 50817U 22001Q   23284.38321762  .00002053  00000-0  14703-3 0  9995,2 50817  53.2150 160.9706 0001085  85.7671 274.3445 15.08839677 98769,6917.881,95.438,540.497,538.996,0.0
50817.0,STARLINK-3341,PAYLOAD,2023-10-11 21:54:55,15.08826465,0.0001006,53.2149,158.5919,90.4557,269.6551,0.00024398,3.596e-05,0.0,0 STARLINK-3341,1 50817U 22001Q   23284.91314666  .00003596  00000-0  24398-3 0  9993,2 50817  53.2149 158.5919 0001006  90.4557 269.6551 15.08826465 98840,6917.922,95.438,540.483,539.091,0.0
50817.0,STARLINK-3341,PAYLOAD,2023-10-12 09:02:38,15.08839851,0.0001319,53.2145,156.5095,90.8718,269.2425,0.0012932,0.00020353,0.0,0 STARLINK-3341,1 50817U 22001Q   23285.37683148  .00020353  00000-0  12932-2 0  9998,2 50817  53.2145 156.5095 0001319  90.8718 269.2425 15.08839851 97667,6917.881,95.438,540.658,538.833,0.0
50817.0,STARLINK-3341,PAYLOAD,2023-10-12 20:10:19,15.08865627,0.0001297,53.2146,154.4281,88.604,271.51,0.0017352,0.00027455,0.0,0 STARLINK-3341,1 50817U 22001Q   23285.84050746  .00027455  00000-0  17352-2 0  9993,2 50817  53.2146 154.4281 0001297  88.6040 271.5100 15.08865627 98982,6917.802,95.436,540.564,538.77,0.0
50817.0,STARLINK-3341,PAYLOAD,2023-10-12 21:45:42,15.08869127,0.0001306,53.2144,154.1307,88.1666,271.9475,0.0017442,0.00027602,0.0,0 STARLINK-3341,1 50817U 22001Q   23285.90674618  .00027602  00000-0  17442-2 0  9994,2 50817  53.2144 154.1307 0001306  88.1666 271.9475 15.08869127 97747,6917.791,95.436,540.56,538.753,0.0
50817.0,STARLINK-3341,PAYLOAD,2023-10-13 08:53:24,15.08865212,9.41e-05,53.2152,152.0497,97.8563,262.2536,0.00086214,0.00013469,0.0,0 STARLINK-3341,1 50817U 22001Q   23286.37041994  .00013469  00000-0  86214-3 0  9991,2 50817  53.2152 152.0497 0000941  97.8563 262.2536 15.08865212 99069,6917.803,95.436,540.319,539.017,0.0
50817.0,STARLINK-3341,PAYLOAD,2023-10-13 20:01:05,15.08870444,0.0001365,53.2145,149.9666,107.9962,252.1179,0.00095245,0.00014915,0.0,0 STARLINK-3341,1 50817U 22001Q   23286.83409651  .00014915  00000-0  95245-3 0  9991,2 50817  53.2145 149.9666 0001365 107.9962 252.1179 15.08870444 99133,6917.787,95.436,540.597,538.708,0.0
50817.0,STARLINK-3341,PAYLOAD,2023-10-13 21:36:29,15.08864272,0.000151,53.2146,149.6699,118.1991,241.9153,0.0013722,0.00021633,0.0,0 STARLINK-3341,1 50817U 22001Q   23286.90033716  .00021633  00000-0  13722-2 0  9998,2 50817  53.2146 149.6699 0001510 118.1991 241.9153 15.08864272 97896,6917.806,95.436,540.716,538.627,0.0
50817.0,STARLINK-3341,PAYLOAD,2023-10-14 00:47:15,15.08873244,0.0001471,53.2148,149.0748,113.6749,246.4397,0.001025,0.00016077,0.0,0 STARLINK-3341,1 50817U 22001Q   23287.03281378  .00016077  00000-0  10250-2 0  9991,2 50817  53.2148 149.0748 0001471 113.6749 246.4397 15.08873244 97916,6917.779,95.435,540.661,538.626,0.0
50817.0,STARLINK-3341,PAYLOAD,2023-10-14 21:27:16,15.08845741,0.0001346,53.2155,145.2081,89.6284,270.4862,0.00034562,5.218e-05,0.0,0 STARLINK-3341,1 50817U 22001Q   23287.89393873  .00005218  00000-0  34562-3 0  9997,2 50817  53.2155 145.2081 0001346  89.6284 270.4862 15.08845741 99297,6917.863,95.437,540.659,538.797,0.0
50817.0,STARLINK-3341,PAYLOAD,2023-10-15 00:38:02,15.08845382,0.0001331,53.2152,144.6139,89.2794,270.8351,0.00038995,5.924e-05,0.0,0 STARLINK-3341,1 50817U 22001Q   23288.02641885  .00005924  00000-0  38995-3 0  9990,2 50817  53.2152 144.6139 0001331  89.2794 270.8351 15.08845382 98069,6917.864,95.437,540.65,538.808,0.0
50817.0,STARLINK-3341,PAYLOAD,2023-10-15 21:18:03,15.08842007,0.0001275,53.2144,140.7482,86.8723,273.2415,0.0001961,2.835e-05,0.0,0 STARLINK-3341,1 50817U 22001Q   23288.88754160  .00002835  00000-0  19610-3 0  9996,2 50817  53.2144 140.7482 0001275  86.8723 273.2415 15.08842007 99442,6917.874,95.437,540.621,538.857,0.0
50817.0,STARLINK-3341,PAYLOAD,2023-10-16 06:50:22,15.08842383,0.0001297,53.2142,138.9639,85.7774,274.3366,0.00022909,3.36e-05,0.0,0 STARLINK-3341,1 50817U 22001Q   23289.28498195  .00003360  00000-0  22909-3 0  9993,2 50817  53.2142 138.9639 0001297  85.7774 274.3366 15.08842383 98253,6917.873,95.437,540.635,538.841,0.0
50817.0,STARLINK-3341,PAYLOAD,2023-10-16 16:22:41,15.08836105,0.0001312,53.2142,137.1794,88.0733,272.041,9.3971e-05,1.208e-05,0.0,0 STARLINK-3341,1 50817U 22001Q   23289.68242503  .00001208  00000-0  93971-4 0  9994,2 50817  53.2142 137.1794 0001312  88.0733 272.0410 15.08836105 99560,6917.892,95.438,540.665,538.85,0.0
50817.0,STARLINK-3341,PAYLOAD,2023-10-18 22:25:47,15.08845614,6.24e-05,53.2174,127.0656,72.0941,288.0119,0.00011713,1.577e-05,0.0,0 STARLINK-3341,1 50817U 22001Q   23291.93457976  .00001577  00000-0  11713-3 0  9999,2 50817  53.2174 127.0656 0000624  72.0941 288.0119 15.08845614 98656,6917.863,95.437,540.16,539.297,0.0
50817.0,STARLINK-3341,PAYLOAD,2023-10-19 12:44:16,15.08848016,0.0001405,53.2141,124.3925,88.4187,271.6966,0.00021545,3.143e-05,0.0,0 STARLINK-3341,1 50817U 22001Q   23292.53074130  .00003143  00000-0  21545-3 0  9998,2 50817  53.2141 124.3925 0001405  88.4187 271.6966 15.08848016 98747,6917.856,95.437,540.693,538.749,0.0
50817.0,STARLINK-3341,PAYLOAD,2023-10-19 22:16:34,15.08853541,0.0001384,53.2131,122.6083,88.2782,271.8369,0.00025659,3.8e-05,0.0,0 STARLINK-3341,1 50817U 22001Q   23292.92817668  .00003800  00000-0  25659-3 0  9992,2 50817  53.2131 122.6083 0001384  88.2782 271.8369 15.08853541 98802,6917.839,95.437,540.661,538.747,0.0
50817.0,STARLINK-3341,PAYLOAD,2023-10-20 12:35:03,15.08833987,0.0001556,53.2134,119.9321,85.0706,275.0464,-6.8425e-05,-1.377e-05,0.0,0 STARLINK-3341,1 50817U 22001Q   23293.52434643 -.00001377  00000-0 -68425-4 0  9995,2 50817  53.2134 119.9321 0001556  85.0706 275.0464 15.08833987100146,6917.899,95.438,540.84,538.687,0.0
50817.0,STARLINK-3341,PAYLOAD,2023-10-20 22:07:22,15.0883784,0.0001315,53.2159,118.1484,87.6242,272.4901,-2.6096e-06,-3.29e-06,0.0,0 STARLINK-3341,1 50817U 22001Q   23293.92178699 -.00000329  00000-0 -26096-5 0  9990,2 50817  53.2159 118.1484 0001315  87.6242 272.4901 15.08837840 98954,6917.887,95.438,540.662,538.842,0.0
50817.0,STARLINK-3341,PAYLOAD,2023-10-21 12:25:49,15.08847873,0.0001466,53.2158,115.4721,86.5277,273.5883,5.1872e-05,5.38e-06,0.0,0 STARLINK-3341,1 50817U 22001Q   23294.51793906  .00000538  00000-0  51872-4 0  9999,2 50817  53.2158 115.4721 0001466  86.5277 273.5883 15.08847873100299,6917.856,95.437,540.735,538.707,0.0
50817.0,STARLINK-3341,PAYLOAD,2023-10-21 21:58:08,15.08854219,0.0001499,53.2158,113.6873,88.5466,271.5698,9.2297e-05,1.182e-05,0.0,0 STARLINK-3341,1 50817U 22001Q   23294.91537153  .00001182  00000-0  92297-4 0  9995,2 50817  53.2158 113.6873 0001499  88.5466 271.5698 15.08854219 99106,6917.837,95.437,540.739,538.665,0.0
50817.0,STARLINK-3341,PAYLOAD,2023-10-21 23:33:31,15.08853858,0.0001481,53.2159,113.39,88.5201,271.5961,0.0001483,2.074e-05,0.0,0 STARLINK-3341,1 50817U 22001Q   23294.98161008  .00002074  00000-0  14830-3 0  9991,2 50817  53.2159 113.3900 0001481  88.5201 271.5961 15.08853858100365,6917.838,95.437,540.728,538.678,0.0
50817.0,STARLINK-3341,PAYLOAD,2023-10-22 12:16:38,15.08826955,0.0001466,53.2152,111.0113,91.386,268.73,2.5195e-05,1.13e-06,0.0,0 STARLINK-3341,1 50817U 22001Q   23295.51155110  .00000113  00000-0  25195-4 0  9997,2 50817  53.2152 111.0113 0001466  91.3860 268.7300 15.08826955100447,6917.92,95.438,540.799,538.771,0.0
50817.0,STARLINK-3341,PAYLOAD,2023-10-22 20:13:33,15.08835904,0.0001483,53.2154,109.5244,92.6795,267.4367,3.2471e-05,2.29e-06,0.0,0 STARLINK-3341,1 50817U 22001Q   23295.84274814  .00000229  00000-0  32471-4 0  9999,2 50817  53.2154 109.5244 0001483  92.6795 267.4367 15.08835904 99244,6917.893,95.438,540.784,538.732,0.0
50817.0,STARLINK-3341,PAYLOAD,2023-10-23 04:10:29,15.08837474,0.0001504,53.2156,108.0375,93.01,267.1064,0.00015449,2.171e-05,0.0,0 STARLINK-3341,1 50817U 22001Q   23296.17394845  .00002171  00000-0  15449-3 0  9996,2 50817  53.2156 108.0375 0001504  93.0100 267.1064 15.08837474100545,6917.888,95.438,540.794,538.713,0.0
50817.0,STARLINK-3341,PAYLOAD,2023-10-23 20:04:20,15.08844541,0.0001461,53.2154,105.064,93.8531,266.2628,0.00047796,7.328e-05,0.0,0 STARLINK-3341,1 50817U 22001Q   23296.83634904  .00007328  00000-0  47796-3 0  9991,2 50817  53.2154 105.0640 0001461  93.8531 266.2628 15.08844541 99392,6917.867,95.437,540.742,538.721,0.0
